start=new Date('2022-08-17T00:00:00.000Z').valueOf();
sats=[{"RCS_SIZE":"LARGE","GP_ID":"210364844","TLE_LINE1":"1 45676U 20035V   22228.77111294  .00001889  00000-0  14569-3 0  9990","PERIOD":"95.592","ARG_OF_PERICENTER":"73.2632","CLASSIFICATION_TYPE":"U","MEAN_ELEMENT_THEORY":"SGP4","NORAD_CAT_ID":"45676","MEAN_MOTION":"15.06395918","MEAN_MOTION_DOT":"0.00001889","PERIAPSIS":"545.982","DECAY_DATE":null,"SITE":"AFETR","FILE":"3538178","APOAPSIS":"548.470","TLE_LINE2":"2 45676  53.0541 146.6810 0001796  73.2632 286.8554 15.06395918122617","ELEMENT_SET_NO":"999","COUNTRY_CODE":"US","OBJECT_ID":"2020-035V","SEMIMAJOR_AXIS":"6925.361","MEAN_ANOMALY":"286.8554","EPOCH":"2022-08-16T18:30:24.158016","REF_FRAME":"TEME","EPHEMERIS_TYPE":"0","BSTAR":"0.00014569000000","ECCENTRICITY":"0.00017960","LAUNCH_DATE":"2020-06-04","INCLINATION":"53.0541","RA_OF_ASC_NODE":"146.6810","MEAN_MOTION_DDOT":"0.0000000000000","OBJECT_NAME":"STARLINK-1460","TIME_SYSTEM":"UTC","OBJECT_TYPE":"PAYLOAD","CENTER_NAME":"EARTH","REV_AT_EPOCH":"12261"},{"OBJECT_ID":"2020-035W","COUNTRY_CODE":"US","ELEMENT_SET_NO":"999","EPHEMERIS_TYPE":"0","EPOCH":"2022-08-16T20:21:51.098976","SEMIMAJOR_AXIS":"6925.345","REF_FRAME":"TEME","MEAN_ANOMALY":"286.7285","BSTAR":"0.00021029000000","LAUNCH_DATE":"2020-06-04","ECCENTRICITY":"0.00015460","RA_OF_ASC_NODE":"146.3120","INCLINATION":"53.0544","OBJECT_NAME":"STARLINK-1392","MEAN_MOTION_DDOT":"0.0000000000000","REV_AT_EPOCH":"12266","CENTER_NAME":"EARTH","OBJECT_TYPE":"PAYLOAD","TIME_SYSTEM":"UTC","GP_ID":"210365594","RCS_SIZE":"LARGE","TLE_LINE1":"1 45677U 20035W   22228.84850809  .00002852  00000-0  21029-3 0  9991","CLASSIFICATION_TYPE":"U","ARG_OF_PERICENTER":"73.3874","PERIOD":"95.592","NORAD_CAT_ID":"45677","MEAN_ELEMENT_THEORY":"SGP4","MEAN_MOTION_DOT":"0.00002852","MEAN_MOTION":"15.06401274","DECAY_DATE":null,"PERIAPSIS":"546.139","FILE":"3538178","APOAPSIS":"548.280","SITE":"AFETR","TLE_LINE2":"2 45677  53.0544 146.3120 0001546  73.3874 286.7285 15.06401274122662"},{"COUNTRY_CODE":"US","OBJECT_ID":"2020-035X","ELEMENT_SET_NO":"999","EPHEMERIS_TYPE":"0","MEAN_ANOMALY":"292.9216","SEMIMAJOR_AXIS":"6925.356","EPOCH":"2022-08-16T18:37:02.187264","REF_FRAME":"TEME","BSTAR":"0.00016911000000","LAUNCH_DATE":"2020-06-04","ECCENTRICITY":"0.00015650","INCLINATION":"53.0563","RA_OF_ASC_NODE":"136.6475","OBJECT_NAME":"STARLINK-1393","MEAN_MOTION_DDOT":"0.0000000000000","OBJECT_TYPE":"PAYLOAD","CENTER_NAME":"EARTH","REV_AT_EPOCH":"12277","TIME_SYSTEM":"UTC","RCS_SIZE":"LARGE","GP_ID":"210364344","TLE_LINE1":"1 45678U 20035X   22228.77571976  .00002238  00000-0  16911-3 0  9991","ARG_OF_PERICENTER":"67.1939","CLASSIFICATION_TYPE":"U","PERIOD":"95.592","NORAD_CAT_ID":"45678","MEAN_ELEMENT_THEORY":"SGP4","MEAN_MOTION":"15.06397626","MEAN_MOTION_DOT":"0.00002238","DECAY_DATE":null,"PERIAPSIS":"546.137","FILE":"3538178","APOAPSIS":"548.305","SITE":"AFETR","TLE_LINE2":"2 45678  53.0563 136.6475 0001565  67.1939 292.9216 15.06397626122773"},{"SITE":"AFETR","FILE":"3538178","APOAPSIS":"548.410","TLE_LINE2":"2 45679  53.0536 138.1313 0001537  89.7112 270.4053 15.06356912122744","MEAN_MOTION_DOT":"0.00010162","MEAN_MOTION":"15.06356912","PERIAPSIS":"546.281","DECAY_DATE":null,"PERIOD":"95.595","CLASSIFICATION_TYPE":"U","ARG_OF_PERICENTER":"89.7112","NORAD_CAT_ID":"45679","MEAN_ELEMENT_THEORY":"SGP4","GP_ID":"210364095","RCS_SIZE":"LARGE","TLE_LINE1":"1 45679U 20035Y   22228.44768159  .00010162  00000-0  70095-3 0  9995","MEAN_MOTION_DDOT":"0.0000000000000","OBJECT_NAME":"STARLINK-1394","TIME_SYSTEM":"UTC","CENTER_NAME":"EARTH","REV_AT_EPOCH":"12274","OBJECT_TYPE":"PAYLOAD","INCLINATION":"53.0536","RA_OF_ASC_NODE":"138.1313","BSTAR":"0.00070095000000","ECCENTRICITY":"0.00015370","LAUNCH_DATE":"2020-06-04","COUNTRY_CODE":"US","OBJECT_ID":"2020-035Y","ELEMENT_SET_NO":"999","EPOCH":"2022-08-16T10:44:39.689376","SEMIMAJOR_AXIS":"6925.481","REF_FRAME":"TEME","MEAN_ANOMALY":"270.4053","EPHEMERIS_TYPE":"0"},{"PERIOD":"95.592","CLASSIFICATION_TYPE":"U","ARG_OF_PERICENTER":"77.9223","NORAD_CAT_ID":"45680","MEAN_ELEMENT_THEORY":"SGP4","GP_ID":"210334119","RCS_SIZE":"LARGE","TLE_LINE1":"1 45680U 20035Z   22228.18964556  .00000022  00000-0  20348-4 0  9998","SITE":"AFETR","APOAPSIS":"548.255","FILE":"3537973","TLE_LINE2":"2 45680  53.0557 139.2937 0001493  77.9223 282.1933 15.06397617122694","MEAN_MOTION_DOT":"0.00000022","MEAN_MOTION":"15.06397617","PERIAPSIS":"546.187","DECAY_DATE":null,"BSTAR":"0.00002034800000","ECCENTRICITY":"0.00014930","LAUNCH_DATE":"2020-06-04","COUNTRY_CODE":"US","OBJECT_ID":"2020-035Z","ELEMENT_SET_NO":"999","SEMIMAJOR_AXIS":"6925.356","EPOCH":"2022-08-16T04:33:05.376384","REF_FRAME":"TEME","MEAN_ANOMALY":"282.1933","EPHEMERIS_TYPE":"0","MEAN_MOTION_DDOT":"0.0000000000000","OBJECT_NAME":"STARLINK-1395","TIME_SYSTEM":"UTC","REV_AT_EPOCH":"12269","CENTER_NAME":"EARTH","OBJECT_TYPE":"PAYLOAD","INCLINATION":"53.0557","RA_OF_ASC_NODE":"139.2937"},{"INCLINATION":"53.0547","RA_OF_ASC_NODE":"136.6222","CENTER_NAME":"EARTH","REV_AT_EPOCH":"12238","OBJECT_TYPE":"PAYLOAD","TIME_SYSTEM":"UTC","OBJECT_NAME":"STARLINK-1396","MEAN_MOTION_DDOT":"0.0000000000000","EPHEMERIS_TYPE":"0","REF_FRAME":"TEME","SEMIMAJOR_AXIS":"6925.368","EPOCH":"2022-08-16T18:47:38.071392","MEAN_ANOMALY":"283.6618","COUNTRY_CODE":"US","OBJECT_ID":"2020-035AA","ELEMENT_SET_NO":"999","LAUNCH_DATE":"2020-06-04","ECCENTRICITY":"0.00013640","BSTAR":"0.00007451300000","DECAY_DATE":null,"PERIAPSIS":"546.288","MEAN_MOTION_DOT":"0.00000828","MEAN_MOTION":"15.06393737","TLE_LINE2":"2 45681  53.0547 136.6222 0001364  76.4523 283.6618 15.06393737122387","APOAPSIS":"548.177","FILE":"3538072","SITE":"AFETR","TLE_LINE1":"1 45681U 20035AA  22228.78307953  .00000828  00000-0  74513-4 0  9994","GP_ID":"210342843","RCS_SIZE":"LARGE","MEAN_ELEMENT_THEORY":"SGP4","NORAD_CAT_ID":"45681","CLASSIFICATION_TYPE":"U","ARG_OF_PERICENTER":"76.4523","PERIOD":"95.593"},{"GP_ID":"210335121","RCS_SIZE":"LARGE","TLE_LINE1":"1 45682U 20035AB  22228.12699519  .00001641  00000-0  12909-3 0  9999","PERIOD":"95.593","CLASSIFICATION_TYPE":"U","ARG_OF_PERICENTER":"89.5993","NORAD_CAT_ID":"45682","MEAN_ELEMENT_THEORY":"SGP4","MEAN_MOTION_DOT":"0.00001641","MEAN_MOTION":"15.06384270","PERIAPSIS":"546.322","DECAY_DATE":null,"SITE":"AFETR","FILE":"3537973","APOAPSIS":"548.202","TLE_LINE2":"2 45682  53.0559 139.5555 0001357  89.5993 270.5151 15.06384270122682","COUNTRY_CODE":"US","OBJECT_ID":"2020-035AB","ELEMENT_SET_NO":"999","EPOCH":"2022-08-16T03:02:52.384416","SEMIMAJOR_AXIS":"6925.397","MEAN_ANOMALY":"270.5151","REF_FRAME":"TEME","EPHEMERIS_TYPE":"0","BSTAR":"0.00012909000000","ECCENTRICITY":"0.00013570","LAUNCH_DATE":"2020-06-04","INCLINATION":"53.0559","RA_OF_ASC_NODE":"139.5555","MEAN_MOTION_DDOT":"0.0000000000000","OBJECT_NAME":"STARLINK-1397","TIME_SYSTEM":"UTC","CENTER_NAME":"EARTH","REV_AT_EPOCH":"12268","OBJECT_TYPE":"PAYLOAD"},{"COUNTRY_CODE":"US","ELEMENT_SET_NO":"999","OBJECT_ID":"2020-035AC","SEMIMAJOR_AXIS":"6925.327","EPOCH":"2022-08-16T18:31:43.533696","REF_FRAME":"TEME","MEAN_ANOMALY":"276.9411","EPHEMERIS_TYPE":"0","BSTAR":"0.00021773000000","ECCENTRICITY":"0.00018740","LAUNCH_DATE":"2020-06-04","RA_OF_ASC_NODE":"136.6600","INCLINATION":"53.0532","MEAN_MOTION_DDOT":"0.0000000000000","OBJECT_NAME":"STARLINK-1399","TIME_SYSTEM":"UTC","OBJECT_TYPE":"PAYLOAD","REV_AT_EPOCH":"12279","CENTER_NAME":"EARTH","RCS_SIZE":"LARGE","GP_ID":"210364594","TLE_LINE1":"1 45683U 20035AC  22228.77203164  .00002963  00000-0  21773-3 0  9995","PERIOD":"95.592","ARG_OF_PERICENTER":"83.1791","CLASSIFICATION_TYPE":"U","NORAD_CAT_ID":"45683","MEAN_ELEMENT_THEORY":"SGP4","MEAN_MOTION":"15.06406883","MEAN_MOTION_DOT":"0.00002963","PERIAPSIS":"545.895","DECAY_DATE":null,"SITE":"AFETR","APOAPSIS":"548.490","FILE":"3538178","TLE_LINE2":"2 45683  53.0532 136.6600 0001874  83.1791 276.9411 15.06406883122799"},{"PERIAPSIS":"546.017","DECAY_DATE":null,"MEAN_MOTION":"15.06393750","MEAN_MOTION_DOT":"-0.00000283","TLE_LINE2":"2 45684  53.0542 136.7659 0001755  63.7079 296.4090 15.06393750122795","SITE":"AFETR","FILE":"3538178","APOAPSIS":"548.448","TLE_LINE1":"1 45684U 20035AD  22228.74991081 -.00000283  00000-0 -12766-6 0  9995","RCS_SIZE":"LARGE","GP_ID":"210364845","NORAD_CAT_ID":"45684","MEAN_ELEMENT_THEORY":"SGP4","PERIOD":"95.593","ARG_OF_PERICENTER":"63.7079","CLASSIFICATION_TYPE":"U","INCLINATION":"53.0542","RA_OF_ASC_NODE":"136.7659","TIME_SYSTEM":"UTC","OBJECT_TYPE":"PAYLOAD","CENTER_NAME":"EARTH","REV_AT_EPOCH":"12279","MEAN_MOTION_DDOT":"0.0000000000000","OBJECT_NAME":"STARLINK-1401","MEAN_ANOMALY":"296.4090","SEMIMAJOR_AXIS":"6925.368","REF_FRAME":"TEME","EPOCH":"2022-08-16T17:59:52.293984","EPHEMERIS_TYPE":"0","OBJECT_ID":"2020-035AD","COUNTRY_CODE":"US","ELEMENT_SET_NO":"999","ECCENTRICITY":"0.00017550","LAUNCH_DATE":"2020-06-04","BSTAR":"-0.00000012766000"},{"INCLINATION":"53.0540","RA_OF_ASC_NODE":"136.7908","OBJECT_NAME":"STARLINK-1402","MEAN_MOTION_DDOT":"0.0000000000000","OBJECT_TYPE":"PAYLOAD","CENTER_NAME":"EARTH","REV_AT_EPOCH":"12279","TIME_SYSTEM":"UTC","OBJECT_ID":"2020-035AE","COUNTRY_CODE":"US","ELEMENT_SET_NO":"999","EPHEMERIS_TYPE":"0","MEAN_ANOMALY":"292.0354","SEMIMAJOR_AXIS":"6925.354","REF_FRAME":"TEME","EPOCH":"2022-08-16T17:54:33.557472","BSTAR":"0.00009472300000","LAUNCH_DATE":"2020-06-04","ECCENTRICITY":"0.00014760","MEAN_MOTION":"15.06398322","MEAN_MOTION_DOT":"0.00001130","DECAY_DATE":null,"PERIAPSIS":"546.197","APOAPSIS":"548.241","FILE":"3538178","SITE":"AFETR","TLE_LINE2":"2 45685  53.0540 136.7908 0001476  68.0792 292.0354 15.06398322122796","RCS_SIZE":"LARGE","GP_ID":"210365595","TLE_LINE1":"1 45685U 20035AE  22228.74622173  .00001130  00000-0  94723-4 0  9990","ARG_OF_PERICENTER":"68.0792","CLASSIFICATION_TYPE":"U","PERIOD":"95.592","MEAN_ELEMENT_THEORY":"SGP4","NORAD_CAT_ID":"45685"}];
